CCSDS_OMM_VERS,COMMENT,CREATION_DATE,ORIGINATOR,OBJECT_NAME,OBJECT_ID,CENTER_NAME,REF_FRAME,TIME_SYSTEM,MEAN_ELEMENT_THEORY,EPOCH,MEAN_MOTION,ECCENTRICITY,INCLINATION,RA_OF_ASC_NODE,ARG_OF_PERICENTER,MEAN_ANOMALY,EPHEMERIS_TYPE,CLASSIFICATION_TYPE,NORAD_CAT_ID,ELEMENT_SET_NO,REV_AT_EPOCH,BSTAR,MEAN_MOTION_DOT,MEAN_MOTION_DDOT,SEMIMAJOR_AXIS,PERIOD,APOAPSIS,PERIAPSIS,OBJECT_TYPE,RCS_SIZE,COUNTRY_CODE,LAUNCH_DATE,SITE,DECAY_DATE,FILE,GP_ID,TLE_LINE0,TLE_LINE1,TLE_LINE2
2,GENERATED VIA SPACE-TRACK.ORG API,2010-05-04T09:07:26,18 SPCS,BREEZE-M R/B,2000-029B,EARTH,TEME,UTC,SGP4,2010-05-03T14:00:01.544544,1.00323369,0.0276607,7.2192,59.9338,180.0405,179.8446,0,U,26373,999,3634,0.0001,-1.64e-06,0,42150.304,1435.358,36938.076,34606.262,ROCKET BODY,LARGE,CIS,2000-06-06,TTMTR,,890913,77608028,0 BREEZE-M R/B,1 26373U 00029B   10123.58335121 -.00000164  00000-0  10000-3 0  9993,2 26373 007.2192 059.9338 0276607 180.0405 179.8446 01.00323369 36349
2,GENERATED VIA SPACE-TRACK.ORG API,2010-05-07T08:00:42,18 SPCS,BREEZE-M R/B,2000-029B,EARTH,TEME,UTC,SGP4,2010-05-05T13:50:39.062400,1.00323396,0.0276611,7.2237,59.9131,180.0573,179.8407,0,U,26373,999,3636,0.0001,-1.5e-06,0,42150.296,1435.358,36938.085,34606.238,ROCKET BODY,LARGE,CIS,2000-06-06,TTMTR,,892738,77652895,0 BREEZE-M R/B,1 26373U 00029B   10125.57684100 -.00000150 +00000-0 +10000-3 0  9993,2 26373 007.2237 059.9131 0276611 180.0573 179.8407 01.00323396036360
2,GENERATED VIA SPACE-TRACK.ORG API,2010-05-06T11:17:06,18 SPCS,BREEZE-M R/B,2000-029B,EARTH,TEME,UTC,SGP4,2010-05-05T13:50:39.929855,1.00323386,0.0276577,7.2237,59.9121,180.0822,179.8201,0,U,26373,999,3636,0.0001,-1.5e-06,0,42150.299,1435.358,36937.944,34606.384,ROCKET BODY,LARGE,CIS,2000-06-06,TTMTR,,892136,77637481,0 BREEZE-M R/B,1 26373U 00029B   10125.57685104 -.00000150 +00000-0 +10000-3 0  9998,2 26373 007.2237 059.9121 0276577 180.0822 179.8201 01.00323386036368
2,GENERATED VIA SPACE-TRACK.ORG API,2010-05-09T00:26:29,18 SPCS,BREEZE-M R/B,2000-029B,EARTH,TEME,UTC,SGP4,2010-05-08T13:36:30.781152,1.00323418,0.0275974,7.2307,59.8759,180.0206,179.8727,0,U,26373,999,3639,0.0001,-1.25e-06,0,42150.29,1435.357,36935.393,34608.917,ROCKET BODY,LARGE,CIS,2000-06-06,TTMTR,,893765,77675856,0 BREEZE-M R/B,1 26373U 00029B   10128.56702293 -.00000125  00000-0  10000-3 0  9991,2 26373 007.2307 059.8759 0275974 180.0206 179.8727 01.00323418 36390
2,GENERATED VIA SPACE-TRACK.ORG API,2010-05-09T07:30:54,18 SPCS,BREEZE-M R/B,2000-029B,EARTH,TEME,UTC,SGP4,2010-05-08T13:36:30.781152,1.00323418,0.0275974,7.2307,59.8759,180.0206,179.8727,0,U,26373,999,3639,0.0001,-1.25e-06,0,42150.29,1435.357,36935.393,34608.917,ROCKET BODY,LARGE,CIS,2000-06-06,TTMTR,,893857,77682420,0 BREEZE-M R/B,1 26373U 00029B   10128.56702293 -.00000125 +00000-0 +10000-3 0  9991,2 26373 007.2307 059.8759 0275974 180.0206 179.8727 01.00323418036390
2,GENERATED VIA SPACE-TRACK.ORG API,2010-05-10T08:32:50,18 SPCS,BREEZE-M R/B,2000-029B,EARTH,TEME,UTC,SGP4,2010-05-09T13:31:48.265247,1.00323493,0.0272257,7.2347,59.8467,179.3536,180.5125,0,U,26373,999,3640,0.0001,-1.17e-06,0,42150.269,1435.356,36919.705,34624.563,ROCKET BODY,LARGE,CIS,2000-06-06,TTMTR,,894273,77700069,0 BREEZE-M R/B,1 26373U 00029B   10129.56375307 -.00000117  00000-0  10000-3 0  9995,2 26373 007.2347 059.8467 0272257 179.3536 180.5125 01.00323493 36404
2,GENERATED VIA SPACE-TRACK.ORG API,2010-05-13T19:24:56,18 SPCS,BREEZE-M R/B,2000-029B,EARTH,TEME,UTC,SGP4,2010-05-12T13:17:43.543679,1.00324049,0.0275939,7.2406,59.8348,180.1555,179.7731,0,U,26373,999,3643,0.0001,-9.8e-07,0,42150.113,1435.348,36935.064,34608.892,ROCKET BODY,LARGE,CIS,2000-06-06,TTMTR,,896403,77749994,0 BREEZE-M R/B,1 26373U 00029B   10132.55397620 -.00000098  00000-0  10000-3 0  9998,2 26373 007.2406 059.8348 0275939 180.1555 179.7731 01.00324049 36433
2,GENERATED VIA SPACE-TRACK.ORG API,2010-05-17T08:33:44,18 SPCS,BREEZE-M R/B,2000-029B,EARTH,TEME,UTC,SGP4,2010-05-16T12:58:22.051200,1.00324206,0.0275655,7.2496,59.7894,180.1923,179.6168,0,U,26373,999,3647,0.0001,-9.5e-07,0,42150.069,1435.346,36933.822,34610.047,ROCKET BODY,LARGE,CIS,2000-06-06,TTMTR,,897976,77803862,0 BREEZE-M R/B,1 26373U 00029B   10136.54053300 -.00000095  00000-0  10000-3 0  9992,2 26373 007.2496 059.7894 0275655 180.1923 179.6168 01.00324206 36473
2,GENERATED VIA SPACE-TRACK.ORG API,2010-05-18T08:57:01,18 SPCS,BREEZE-M R/B,2000-029B,EARTH,TEME,UTC,SGP4,2010-05-17T12:53:42.057312,1.00323709,0.0275436,7.2513,59.7732,180.0654,179.7328,0,U,26373,999,3648,0.0001,-9.8e-07,0,42150.209,1435.353,36933.042,34611.105,ROCKET BODY,LARGE,CIS,2000-06-06,TTMTR,,898591,77819207,0 BREEZE-M R/B,1 26373U 00029B   10137.53729233 -.00000098  00000-0  10000-3 0  9990,2 26373 007.2513 059.7732 0275436 180.0654 179.7328 01.00323709 36488
2,GENERATED VIA SPACE-TRACK.ORG API,2010-05-21T08:02:40,18 SPCS,BREEZE-M R/B,2000-029B,EARTH,TEME,UTC,SGP4,2010-05-19T12:44:28.548671,1.00323782,0.027528,7.2559,59.751,180.0714,179.7769,0,U,26373,999,3650,0.0001,-1.04e-06,0,42150.188,1435.352,36932.363,34611.743,ROCKET BODY,LARGE,CIS,2000-06-06,TTMTR,,900239,77859752,0 BREEZE-M R/B,1 26373U 00029B   10139.53088598 -.00000104 +00000-0 +10000-3 0  9992,2 26373 007.2559 059.7510 0275280 180.0714 179.7769 01.00323782036509
2,GENERATED VIA SPACE-TRACK.ORG API,2010-05-21T16:41:06,18 SPCS,BREEZE-M R/B,2000-029B,EARTH,TEME,UTC,SGP4,2010-05-20T12:39:47.791008,1.0032382,0.0275367,7.258,59.7417,180.1075,179.7496,0,U,26373,999,3651,0.0001,-1.07e-06,0,42150.177,1435.352,36932.719,34611.366,ROCKET BODY,LARGE,CIS,2000-06-06,TTMTR,,900368,77862984,0 BREEZE-M R/B,1 26373U 00029B   10140.52763647 -.00000107  00000-0  10000-3 0  9991,2 26373 007.2580 059.7417 0275367 180.1075 179.7496 01.00323820 36517
2,GENERATED VIA SPACE-TRACK.ORG API,2010-05-23T08:00:46,18 SPCS,BREEZE-M R/B,2000-029B,EARTH,TEME,UTC,SGP4,2010-05-21T12:35:04.019711,1.00323862,0.0275356,7.2603,59.731,180.1306,179.723,0,U,26373,999,3652,0.0001,-1.11e-06,0,42150.166,1435.351,36932.661,34611.401,ROCKET BODY,LARGE,CIS,2000-06-06,TTMTR,,901133,77886996,0 BREEZE-M R/B,1 26373U 00029B   10141.52435208 -.00000111 +00000-0 +10000-3 0  9996,2 26373 007.2603 059.7310 0275356 180.1306 179.7230 01.00323862036523
2,GENERATED VIA SPACE-TRACK.ORG API,2010-05-24T07:50:02,18 SPCS,BREEZE-M R/B,2000-029B,EARTH,TEME,UTC,SGP4,2010-05-22T12:30:18.524736,1.00323912,0.0275326,7.2626,59.7204,180.155,179.6881,0,U,26373,999,3653,0.0001,-1.14e-06,0,42150.152,1435.35,36932.52,34611.513,ROCKET BODY,LARGE,CIS,2000-06-06,TTMTR,,901510,77901629,0 BREEZE-M R/B,1 26373U 00029B   10142.52104774 -.00000114 +00000-0 +10000-3 0  9991,2 26373 007.2626 059.7204 0275326 180.1550 179.6881 01.00323912036536
2,GENERATED VIA SPACE-TRACK.ORG API,2010-05-24T08:31:45,18 SPCS,BREEZE-M R/B,2000-029B,EARTH,TEME,UTC,SGP4,2010-05-23T12:25:31.494432,1.00323966,0.0275295,7.2648,59.7094,180.1818,179.6451,0,U,26373,999,3654,0.0001,-1.18e-06,0,42150.137,1435.349,36932.374,34611.629,ROCKET BODY,LARGE,CIS,2000-06-06,TTMTR,,901532,77904566,0 BREEZE-M R/B,1 26373U 00029B   10143.51772563 -.00000118  00000-0  10000-3 0  9992,2 26373 007.2648 059.7094 0275295 180.1818 179.6451 01.00323966 36542
2,GENERATED VIA SPACE-TRACK.ORG API,2010-05-26T08:01:29,18 SPCS,BREEZE-M R/B,2000-029B,EARTH,TEME,UTC,SGP4,2010-05-24T12:20:43.613952,1.00324023,0.0275352,7.2671,59.6991,180.2312,179.5767,0,U,26373,999,3655,0.0001,-1.22e-06,0,42150.121,1435.349,36932.598,34611.374,ROCKET BODY,LARGE,CIS,2000-06-06,TTMTR,,902643,77930924,0 BREEZE-M R/B,1 26373U 00029B   10144.51439368 -.00000122 +00000-0 +10000-3 0  9991,2 26373 007.2671 059.6991 0275352 180.2312 179.5767 01.00324023036552
2,GENERATED VIA SPACE-TRACK.ORG API,2010-05-27T08:07:16,18 SPCS,BREEZE-M R/B,2000-029B,EARTH,TEME,UTC,SGP4,2010-05-25T12:15:55.493280,1.0032409,0.0275437,7.2693,59.6885,180.2935,179.4961,0,U,26373,999,3656,0.0001,-1.26e-06,0,42150.102,1435.348,36932.937,34610.997,ROCKET BODY,LARGE,CIS,2000-06-06,TTMTR,,903248,77947543,0 BREEZE-M R/B,1 26373U 00029B   10145.51105895 -.00000126 +00000-0 +10000-3 0  9991,2 26373 007.2693 059.6885 0275437 180.2935 179.4961 01.00324090036563
2,GENERATED VIA SPACE-TRACK.ORG API,2010-06-02T00:58:39,18 SPCS,BREEZE-M R/B,2000-029B,EARTH,TEME,UTC,SGP4,2010-05-25T12:15:55.493280,1.0032409,0.0275437,7.2693,59.6885,180.2935,179.4961,0,U,26373,999,3656,0.0001,-1.26e-06,0,42150.102,1435.348,36932.937,34610.997,ROCKET BODY,LARGE,CIS,2000-06-06,TTMTR,,905898,78025906,0 BREEZE-M R/B,1 26373U 00029B   10145.51105895 -.00000126  00000-0  10000-3 0  9991,2 26373 007.2693 059.6885 0275437 180.2935 179.4961 01.00324090 36563
2,GENERATED VIA SPACE-TRACK.ORG API,2010-06-02T16:31:07,18 SPCS,BREEZE-M R/B,2000-029B,EARTH,TEME,UTC,SGP4,2010-06-01T11:42:54.152928,1.00324658,0.027529,7.2853,59.6072,180.5305,179.284,0,U,26373,999,3663,0.0001,-1.13e-06,0,42149.943,1435.34,36932.153,34611.462,ROCKET BODY,LARGE,CIS,2000-06-06,TTMTR,,906242,78038291,0 BREEZE-M R/B,1 26373U 00029B   10152.48812677 -.00000113  00000-0  10000-3 0  9994,2 26373 007.2853 059.6072 0275290 180.5305 179.2840 01.00324658 36632
2,GENERATED VIA SPACE-TRACK.ORG API,2010-06-07T08:34:31,18 SPCS,BREEZE-M R/B,2000-029B,EARTH,TEME,UTC,SGP4,2010-06-06T11:19:12.820223,1.00325081,0.027528,7.2964,59.5492,180.6627,179.1481,0,U,26373,999,3668,0.0001,-7.3e-07,0,42149.824,1435.334,36931.99,34611.389,ROCKET BODY,LARGE,CIS,2000-06-06,TTMTR,,908637,78109076,0 BREEZE-M R/B,1 26373U 00029B   10157.47167616 -.00000073  00000-0  10000-3 0  9999,2 26373 007.2964 059.5492 0275280 180.6627 179.1481 01.00325081 36683
2,GENERATED VIA SPACE-TRACK.ORG API,2010-06-08T08:36:34,18 SPCS,BREEZE-M R/B,2000-029B,EARTH,TEME,UTC,SGP4,2010-06-07T11:14:25.657727,1.00325236,0.0274786,7.2988,59.5365,180.6106,179.1909,0,U,26373,999,3669,0.0001,-6.6e-07,0,42149.781,1435.331,36929.863,34613.429,ROCKET BODY,LARGE,CIS,2000-06-06,TTMTR,,909214,78122840,0 BREEZE-M R/B,1 26373U 00029B   10158.46835252 -.00000066  00000-0  10000-3 0  9999,2 26373 007.2988 059.5365 0274786 180.6106 179.1909 01.00325236 36698
